NORAD_CAT_ID,OBJECT_NAME,OBJECT_TYPE,EPOCH,MEAN_MOTION,ECCENTRICITY,INCLINATION,RA_OF_ASC_NODE,ARG_OF_PERICENTER,MEAN_ANOMALY,BSTAR,MEAN_MOTION_DOT,MEAN_MOTION_DDOT,TLE_LINE0,TLE_LINE1,TLE_LINE2,SEMIMAJOR_AXIS,PERIOD,APOGEE,PERIGEE,DECAYED
55290.0,STARLINK-5266,PAYLOAD,2024-08-03 20:15:32,14.98338192,0.0003097,69.9997,54.0529,267.822,92.2584,2.1669e-07,-9e-07,0.0,0 STARLINK-5266,1 55290U 23010X   24216.84413191 -.00000090  00000-0  21669-6 0  9993,2 55290  69.9997  54.0529 0003097 267.8220  92.2584 14.98338192 85666,6950.168,96.106,574.185,569.88,0.0
55290.0,STARLINK-5266,PAYLOAD,2024-08-03 21:51:41,14.98338375,0.0003016,69.9999,53.8845,267.732,92.3494,1.9119e-06,-7e-07,0.0,0 STARLINK-5266,1 55290U 23010X   24216.91089152 -.00000070  00000-0  19119-5 0  9991,2 55290  69.9999  53.8845 0003016 267.7320  92.3494 14.98338375 85975,6950.167,96.106,574.128,569.936,0.0
55290.0,STARLINK-5266,PAYLOAD,2024-08-04 12:16:54,14.98323959,0.0002992,70.0001,52.3699,267.5922,92.4894,7.074e-05,7.51e-06,0.0,0 STARLINK-5266,1 55290U 23010X   24217.51173767  .00000751  00000-0  70740-4 0  9995,2 55290  70.0001  52.3699 0002992 267.5922  92.4894 14.98323959 85765,6950.212,96.107,574.156,569.997,0.0
55290.0,STARLINK-5266,PAYLOAD,2024-08-04 13:53:02,14.98323869,0.0002958,70.0,52.2012,268.3668,91.7152,2.7732e-05,2.38e-06,0.0,0 STARLINK-5266,1 55290U 23010X   24217.57849929  .00000238  00000-0  27732-4 0  9994,2 55290  70.0000  52.2012 0002958 268.3668  91.7152 14.98323869 86074,6950.212,96.107,574.133,570.021,0.0
55290.0,STARLINK-5266,PAYLOAD,2024-08-04 21:53:42,14.9832815,0.000298,70.0001,51.3601,269.3976,90.6842,0.00010165,1.12e-05,0.0,0 STARLINK-5266,1 55290U 23010X   24217.91229539  .00001120  00000-0  10165-3 0  9993,2 55290  70.0001  51.3601 0002980 269.3976  90.6842 14.98328150 86125,6950.199,96.107,574.135,569.992,0.0
55290.0,STARLINK-5266,PAYLOAD,2024-08-04 23:29:50,14.98330318,0.0002864,70.0001,51.1917,265.4338,94.6494,0.00010936,1.212e-05,0.0,0 STARLINK-5266,1 55290U 23010X   24217.97905363  .00001212  00000-0  10936-3 0  9993,2 55290  70.0001  51.1917 0002864 265.4338  94.6494 14.98330318 85836,6950.192,96.107,574.047,570.066,0.0
55290.0,STARLINK-5266,PAYLOAD,2024-08-05 21:55:43,14.9833246,0.0002815,70.0002,48.8348,265.8983,94.1854,1.2899e-05,6.1e-07,0.0,0 STARLINK-5266,1 55290U 23010X   24218.91369377  .00000061  00000-0  12899-4 0  9999,2 55290  70.0002  48.8348 0002815 265.8983  94.1854 14.98332460 86278,6950.185,96.107,574.007,570.094,0.0
55290.0,STARLINK-5266,PAYLOAD,2024-08-06 12:20:56,14.98326855,0.0002784,70.0001,47.3198,269.3326,90.7514,8.6169e-08,-9.2e-07,0.0,0 STARLINK-5266,1 55290U 23010X   24219.51453715 -.00000092  00000-0  86169-7 0  9995,2 55290  70.0001  47.3198 0002784 269.3326  90.7514 14.98326855 86062,6950.203,96.107,574.003,570.133,0.0
55290.0,STARLINK-5266,PAYLOAD,2024-08-06 13:57:04,14.9832728,0.0002806,70.0,47.1514,269.2352,90.8486,7.8185e-06,0.0,0.0,0 STARLINK-5266,1 55290U 23010X   24219.58129659  .00000000  00000-0  78185-5 0  9994,2 55290  70.0000  47.1514 0002806 269.2352  90.8486 14.98327280 86370,6950.201,96.107,574.017,570.116,0.0
55290.0,STARLINK-5266,PAYLOAD,2024-08-06 21:57:44,14.98327496,0.0002948,70.0001,46.3096,268.5278,91.5543,-3.76e-06,-1.38e-06,0.0,0 STARLINK-5266,1 55290U 23010X   24219.91509689 -.00000138  00000-0 -37600-5 0  9997,2 55290  70.0001  46.3096 0002948 268.5278  91.5543 14.98327496 86420,6950.201,96.107,574.115,570.017,0.0
55290.0,STARLINK-5266,PAYLOAD,2024-08-07 12:22:56,14.98328986,0.0003037,70.0002,44.7949,268.8555,91.2256,3.008e-05,2.66e-06,0.0,0 STARLINK-5266,1 55290U 23010X   24220.51593459  .00000266  00000-0  30080-4 0  9997,2 55290  70.0002  44.7949 0003037 268.8555  91.2256 14.98328986 86211,6950.196,96.107,574.172,569.95,0.0
55290.0,STARLINK-5266,PAYLOAD,2024-08-07 20:23:36,14.98331903,0.0002931,70.0004,43.9536,269.4653,90.617,2.099e-05,1.57e-06,0.0,0 STARLINK-5266,1 55290U 23010X   24220.84973316  .00000157  00000-0  20990-4 0  9995,2 55290  70.0004  43.9536 0002931 269.4653  90.6170 14.98331903 86563,6950.187,96.107,574.089,570.015,0.0
55290.0,STARLINK-5266,PAYLOAD,2024-08-08 14:01:05,14.983286,0.0002983,70.0004,42.1016,268.6716,91.4101,5.2961e-05,5.39e-06,0.0,0 STARLINK-5266,1 55290U 23010X   24221.58409400  .00000539  00000-0  52961-4 0  9992,2 55290  70.0004  42.1016 0002983 268.6716  91.4101 14.98328600 86670,6950.197,96.107,574.135,569.989,0.0
55290.0,STARLINK-5266,PAYLOAD,2024-08-08 20:25:37,14.98332903,0.0002903,70.0005,41.4273,265.7304,94.3524,7.7877e-05,8.36e-06,0.0,0 STARLINK-5266,1 55290U 23010X   24221.85113033  .00000836  00000-0  77877-4 0  9999,2 55290  70.0005  41.4273 0002903 265.7304  94.3524 14.98332903 86415,6950.184,96.107,574.067,570.031,0.0
55290.0,STARLINK-5266,PAYLOAD,2024-08-08 22:01:45,14.98334451,0.0002901,70.0006,41.2594,266.4039,93.6788,9.3672e-05,1.025e-05,0.0,0 STARLINK-5266,1 55290U 23010X   24221.91788885  .00001025  00000-0  93672-4 0  9991,2 55290  70.0006  41.2594 0002901 266.4039  93.6788 14.98334451 86729,6950.179,96.107,574.06,570.028,0.0
55290.0,STARLINK-5266,PAYLOAD,2024-08-09 14:03:06,14.98327295,0.0002814,70.0013,39.5766,264.7804,95.3033,3.3817e-05,3.11e-06,0.0,0 STARLINK-5266,1 55290U 23010X   24222.58549408  .00000311  00000-0  33817-4 0  9993,2 55290  70.0013  39.5766 0002814 264.7804  95.3033 14.98327295 86823,6950.201,96.107,574.022,570.11,0.0
55290.0,STARLINK-5266,PAYLOAD,2024-08-09 20:27:38,14.98329101,0.0002994,70.0012,38.9043,269.5123,90.5693,2.6723e-05,2.26e-06,0.0,0 STARLINK-5266,1 55290U 23010X   24222.85253380  .00000226  00000-0  26723-4 0  9997,2 55290  70.0012  38.9043 0002994 269.5123  90.5693 14.98329101 86567,6950.196,96.107,574.142,569.98,0.0
55290.0,STARLINK-5266,PAYLOAD,2024-08-09 22:03:46,14.98330238,0.0003048,70.0011,38.7357,271.1026,88.9784,4.2495e-05,4.14e-06,0.0,0 STARLINK-5266,1 55290U 23010X   24222.91929365  .00000414  00000-0  42495-4 0  9990,2 55290  70.0011  38.7357 0003048 271.1026  88.9784 14.98330238 86873,6950.192,96.107,574.176,569.939,0.0
55290.0,STARLINK-5266,PAYLOAD,2024-08-10 12:28:56,14.98371925,0.0002846,70.0011,37.2209,263.9315,96.152,0.00043534,5.111e-05,0.0,0 STARLINK-5266,1 55290U 23010X   24223.52009722  .00005111  00000-0  43534-3 0  9997,2 55290  70.0011  37.2209 0002846 263.9315  96.1520 14.98371925 86662,6950.063,96.104,573.906,569.95,0.0
55290.0,STARLINK-5266,PAYLOAD,2024-08-10 14:05:03,14.98378059,0.0002794,70.0014,37.052,262.3184,97.7658,0.00051077,6.014e-05,0.0,0 STARLINK-5266,1 55290U 23010X   24223.58685010  .00006014  00000-0  51077-3 0  9997,2 55290  70.0014  37.0520 0002794 262.3184  97.7658 14.98378059 86976,6950.044,96.104,573.851,569.967,0.0
55290.0,STARLINK-5266,PAYLOAD,2024-08-10 20:29:39,14.98327388,0.0002803,70.0012,36.3794,265.6922,94.3917,-8.5745e-05,-1.116e-05,0.0,0 STARLINK-5266,1 55290U 23010X   24223.85393012 -.00001116  00000-0 -85745-4 0  9995,2 55290  70.0012  36.3794 0002803 265.6922  94.3917 14.98327388 86718,6950.201,96.107,574.014,570.118,0.0
55290.0,STARLINK-5266,PAYLOAD,2024-08-10 22:05:47,14.98323369,0.0002774,70.0011,36.2099,264.9996,95.0846,-0.00012039,-1.529e-05,0.0,0 STARLINK-5266,1 55290U 23010X   24223.92069396 -.00001529  00000-0 -12039-3 0  9991,2 55290  70.0011  36.2099 0002774 264.9996  95.0846 14.98323369 87023,6950.213,96.107,574.006,570.15,0.0
55290.0,STARLINK-5266,PAYLOAD,2024-08-11 17:19:24,14.9832353,0.0002876,70.0012,34.1907,265.0884,94.9947,-3.3613e-05,-4.94e-06,0.0,0 STARLINK-5266,1 55290U 23010X   24224.72181346 -.00000494  00000-0 -33613-4 0  9992,2 55290  70.0012  34.1907 0002876 265.0884  94.9947 14.98323530 87143,6950.213,96.107,574.077,570.079,0.0
55290.0,STARLINK-5266,PAYLOAD,2024-08-12 04:32:20,14.98330559,0.0002682,70.0016,33.0127,269.803,90.2822,3.8413e-06,-4.7e-07,0.0,0 STARLINK-5266,1 55290U 23010X   24225.18912825 -.00000047  00000-0  38413-5 0  9994,2 55290  70.0016  33.0127 0002682 269.8030  90.2822 14.98330559 86913,6950.191,96.107,573.92,570.192,0.0
55290.0,STARLINK-5266,PAYLOAD,2024-08-12 10:56:53,14.9835357,0.0002566,70.0019,32.3393,264.6791,95.4075,-0.00046294,-5.615e-05,0.0,0 STARLINK-5266,1 55290U 23010X   24225.45616975 -.00005615  00000-0 -46294-3 0  9992,2 55290  70.0019  32.3393 0002566 264.6791  95.4075 14.98353570 87254,6950.12,96.105,573.768,570.202,0.0
55290.0,STARLINK-5266,PAYLOAD,2024-08-12 17:21:25,14.98349462,0.0002829,70.0022,31.6666,264.2099,95.8738,-0.00044878,-5.446e-05,0.0,0 STARLINK-5266,1 55290U 23010X   24225.72320831 -.00005446  00000-0 -44878-3 0  9993,2 55290  70.0022  31.6666 0002829 264.2099  95.8738 14.98349462 87291,6950.133,96.106,573.964,570.032,0.0
55290.0,STARLINK-5266,PAYLOAD,2024-08-13 04:34:21,14.98320506,0.0003532,70.0009,30.4859,271.1125,88.9629,0.00011031,1.223e-05,0.0,0 STARLINK-5266,1 55290U 23010X   24226.19052967  .00001223  00000-0  11031-3 0  9999,2 55290  70.0009  30.4859 0003532 271.1125  88.9629 14.98320506 87061,6950.222,96.108,574.542,569.632,0.0
55290.0,STARLINK-5266,PAYLOAD,2024-08-13 10:58:56,14.98302334,0.0002825,69.9972,29.8116,270.0762,90.0073,-0.00023864,-2.937e-05,0.0,0 STARLINK-5266,1 55290U 23010X   24226.45759609 -.00002937  00000-0 -23864-3 0  9997,2 55290  69.9972  29.8116 0002825 270.0762  90.0073 14.98302334 87105,6950.278,96.109,574.107,570.18,0.0
55290.0,STARLINK-5266,PAYLOAD,2024-08-13 20:35:45,14.98302304,0.0002893,70.0004,28.8024,270.8451,89.2376,-0.00022321,-2.753e-05,0.0,0 STARLINK-5266,1 55290U 23010X   24226.85816282 -.00002753  00000-0 -22321-3 0  9995,2 55290  70.0004  28.8024 0002893 270.8451  89.2376 14.98302304 87461,6950.279,96.109,574.154,570.133,0.0
55290.0,STARLINK-5266,PAYLOAD,2024-08-14 04:36:24,14.98314733,0.0003297,69.9959,27.9619,270.1846,89.8935,2.8252e-05,2.44e-06,0.0,0 STARLINK-5266,1 55290U 23010X   24227.19195090  .00000244  00000-0  28252-4 0  9991,2 55290  69.9959  27.9619 0003297 270.1846  89.8935 14.98314733 87216,6950.24,96.108,574.397,569.814,0.0
